CTC2_L_00161001-01
1 10000U 23781JR  26075.70042824  .00000000  00000+0  00000-0 0  9998
2 10000  85.0000   0.0000 0000000   0.0000   0.0000 14.98995063    11
CTC2_L_00161001-02
1 10001U 22696VW  26075.70042824  .00000000  00000+0  00000-0 0  9993
2 10001  85.0000   0.0000 0000000   0.0000  90.0000 14.98995063    11
CTC2_L_00161001-03
1 10002U 24361LJ  26075.70042824  .00000000  00000+0  00000-0 0  9995
2 10002  85.0000   0.0000 0000000   0.0000 180.0000 14.98995063    12
CTC2_L_00161001-04
1 10003U 24338ZZ  26075.70042824  .00000000  00000+0  00000-0 0  9990
2 10003  85.0000   0.0000 0000000   0.0000 270.0000 14.98995063    13
CTC2_L_00161002-01
1 10004U 23750CU  26075.70042824  .00000000  00000+0  00000-0 0  9998
2 10004  85.0000  12.0000 0000000   0.0000  12.0000 14.98995063    11
CTC2_L_00161002-02
1 10005U 24098LC  26075.70042824  .00000000  00000+0  00000-0 0  9995
2 10005  85.0000  12.0000 0000000   0.0000 102.0000 14.98995063    12
CTC2_L_00161002-03
1 10006U 26186XJ  26075.70042824  .00000000  00000+0  00000-0 0  9996
2 10006  85.0000  12.0000 0000000   0.0000 192.0000 14.98995063    12
CTC2_L_00161002-04
1 10007U 25107ZN  26075.70042824  .00000000  00000+0  00000-0 0  9999
2 10007  85.0000  12.0000 0000000   0.0000 282.0000 14.98995063    13
CTC2_L_00161003-01
1 10008U 25082CO  26075.70042824  .00000000  00000+0  00000-0 0  9992
2 10008  85.0000  24.0000 0000000   0.0000  24.0000 14.98995063    11
CTC2_L_00161003-02
1 10009U 25454HC  26075.70042824  .00000000  00000+0  00000-0 0  9996
2 10009  85.0000  24.0000 0000000   0.0000 114.0000 14.98995063    12
CTC2_L_00161003-03
1 10010U 25893EV  26075.70042824  .00000000  00000+0  00000-0 0  9995
2 10010  85.0000  24.0000 0000000   0.0000 204.0000 14.98995063    14
CTC2_L_00161003-04
1 10011U 25086IU  26075.70042824  .00000000  00000+0  00000-0 0  9990
2 10011  85.0000  24.0000 0000000   0.0000 294.0000 14.98995063    14
CTC2_L_00161004-01
1 10012U 26220YP  26075.70042824  .00000000  00000+0  00000-0 0  9992
2 10012  85.0000  36.0000 0000000   0.0000  36.0000 14.98995063    12
CTC2_L_00161004-02
1 10013U 26974QT  26075.70042824  .00000000  00000+0  00000-0 0  9999
2 10013  85.0000  36.0000 0000000   0.0000 126.0000 14.98995063    13
CTC2_L_00161004-03
1 10014U 24810EK  26075.70042824  .00000000  00000+0  00000-0 0  9997
2 10014  85.0000  36.0000 0000000   0.0000 216.0000 14.98995063    14
CTC2_L_00161004-04
1 10015U 24949IP  26075.70042824  .00000000  00000+0  00000-0 0  9991
2 10015  85.0000  36.0000 0000000   0.0000 306.0000 14.98995063    15
CTC2_L_00161005-01
1 10016U 25014FI  26075.70042824  .00000000  00000+0  00000-0 0  9996
2 10016  85.0000  48.0000 0000000   0.0000  48.0000 14.98995063    12
CTC2_L_00161005-02
1 10017U 25378OJ  26075.70042824  .00000000  00000+0  00000-0 0  9990
2 10017  85.0000  48.0000 0000000   0.0000 138.0000 14.98995063    13
CTC2_L_00161005-03
1 10018U 24022MB  26075.70042824  .00000000  00000+0  00000-0 0  9996
2 10018  85.0000  48.0000 0000000   0.0000 228.0000 14.98995063    14
CTC2_L_00161005-04
1 10019U 22350IT  26075.70042824  .00000000  00000+0  00000-0 0  9999
2 10019  85.0000  48.0000 0000000   0.0000 318.0000 14.98995063    15
CTC2_L_00161006-01
1 10020U 26808SL  26075.70042824  .00000000  00000+0  00000-0 0  9993
2 10020  85.0000  60.0000 0000000   0.0000  60.0000 14.98995063    15
CTC2_L_00161006-02
1 10021U 26747TK  26075.70042824  .00000000  00000+0  00000-0 0  9996
2 10021  85.0000  60.0000 0000000   0.0000 150.0000 14.98995063    16
CTC2_L_00161006-03
1 10022U 25212SU  26075.70042824  .00000000  00000+0  00000-0 0  9993
2 10022  85.0000  60.0000 0000000   0.0000 240.0000 14.98995063    17
CTC2_L_00161006-04
1 10023U 24147ZQ  26075.70042824  .00000000  00000+0  00000-0 0  9990
2 10023  85.0000  60.0000 0000000   0.0000 330.0000 14.98995063    18
CTC2_L_00161007-01
1 10024U 26588NX  26075.70042824  .00000000  00000+0  00000-0 0  9992
2 10024  85.0000  72.0000 0000000   0.0000  72.0000 14.98995063    15
CTC2_L_00161007-02
1 10025U 24995ID  26075.70042824  .00000000  00000+0  00000-0 0  9993
2 10025  85.0000  72.0000 0000000   0.0000 162.0000 14.98995063    16
CTC2_L_00161007-03
1 10026U 24567FQ  26075.70042824  .00000000  00000+0  00000-0 0  9999
2 10026  85.0000  72.0000 0000000   0.0000 252.0000 14.98995063    17
CTC2_L_00161007-04
1 10027U 25973CJ  26075.70042824  .00000000  00000+0  00000-0 0  9992
2 10027  85.0000  72.0000 0000000   0.0000 342.0000 14.98995063    18
CTC2_L_00161008-01
1 10028U 26997VM  26075.70042824  .00000000  00000+0  00000-0 0  9990
2 10028  85.0000  84.0000 0000000   0.0000  84.0000 14.98995063    15
CTC2_L_00161008-02
1 10029U 26931VT  26075.70042824  .00000000  00000+0  00000-0 0  9999
2 10029  85.0000  84.0000 0000000   0.0000 174.0000 14.98995063    16
CTC2_L_00161008-03
1 10030U 25719UJ  26075.70042824  .00000000  00000+0  00000-0 0  9994
2 10030  85.0000  84.0000 0000000   0.0000 264.0000 14.98995063    18
CTC2_L_00161008-04
1 10031U 22822ZI  26075.70042824  .00000000  00000+0  00000-0 0  9997
2 10031  85.0000  84.0000 0000000   0.0000 354.0000 14.98995063    19
CTC2_L_00161009-01
1 10032U 26291AG  26075.70042824  .00000000  00000+0  00000-0 0  9992
2 10032  85.0000  96.0000 0000000   0.0000  96.0000 14.98995063    16
CTC2_L_00161009-02
1 10033U 22290VX  26075.70042824  .00000000  00000+0  00000-0 0  9998
2 10033  85.0000  96.0000 0000000   0.0000 186.0000 14.98995063    17
CTC2_L_00161009-03
1 10034U 24123YT  26075.70042824  .00000000  00000+0  00000-0 0  9996
2 10034  85.0000  96.0000 0000000   0.0000 276.0000 14.98995063    18
CTC2_L_00161009-04
1 10035U 25389RT  26075.70042824  .00000000  00000+0  00000-0 0  9992
2 10035  85.0000  96.0000 0000000   0.0000   6.0000 14.98995063    10
CTC2_L_00161010-01
1 10036U 24021AB  26075.70042824  .00000000  00000+0  00000-0 0  9995
2 10036  85.0000 108.0000 0000000   0.0000 108.0000 14.98995063    18
CTC2_L_00161010-02
1 10037U 22855BU  26075.70042824  .00000000  00000+0  00000-0 0  9999
2 10037  85.0000 108.0000 0000000   0.0000 198.0000 14.98995063    18
CTC2_L_00161010-03
1 10038U 26486TI  26075.70042824  .00000000  00000+0  00000-0 0  9994
2 10038  85.0000 108.0000 0000000   0.0000 288.0000 14.98995063    19
CTC2_L_00161010-04
1 10039U 24912QQ  26075.70042824  .00000000  00000+0  00000-0 0  9997
2 10039  85.0000 108.0000 0000000   0.0000  18.0000 14.98995063    11
CTC2_L_00161011-01
1 10040U 25425S   26075.70042824  .00000000  00000+0  00000-0 0  9999
2 10040  85.0000 120.0000 0000000   0.0000 120.0000 14.98995063    11
CTC2_L_00161011-02
1 10041U 26114WC  26075.70042824  .00000000  00000+0  00000-0 0  9996
2 10041  85.0000 120.0000 0000000   0.0000 210.0000 14.98995063    12
CTC2_L_00161011-03
1 10042U 22462NH  26075.70042824  .00000000  00000+0  00000-0 0  9999
2 10042  85.0000 120.0000 0000000   0.0000 300.0000 14.98995063    13
CTC2_L_00161011-04
1 10043U 23364C   26075.70042824  .00000000  00000+0  00000-0 0  9992
2 10043  85.0000 120.0000 0000000   0.0000  30.0000 14.98995063    14
CTC2_L_00161012-01
1 10044U 26533XL  26075.70042824  .00000000  00000+0  00000-0 0  9994
2 10044  85.0000 132.0000 0000000   0.0000 132.0000 14.98995063    11
CTC2_L_00161012-02
1 10045U 23517EL  26075.70042824  .00000000  00000+0  00000-0 0  9994
2 10045  85.0000 132.0000 0000000   0.0000 222.0000 14.98995063    12
CTC2_L_00161012-03
1 10046U 25308JS  26075.70042824  .00000000  00000+0  00000-0 0  9995
2 10046  85.0000 132.0000 0000000   0.0000 312.0000 14.98995063    13
CTC2_L_00161012-04
1 10047U 23935QU  26075.70042824  .00000000  00000+0  00000-0 0  9990
2 10047  85.0000 132.0000 0000000   0.0000  42.0000 14.98995063    14
CTC2_L_00161013-01
1 10048U 23981DJ  26075.70042824  .00000000  00000+0  00000-0 0  9992
2 10048  85.0000 144.0000 0000000   0.0000 144.0000 14.98995063    11
CTC2_L_00161013-02
1 10049U 26913AL  26075.70042824  .00000000  00000+0  00000-0 0  9991
2 10049  85.0000 144.0000 0000000   0.0000 234.0000 14.98995063    12
CTC2_L_00161013-03
1 10050U 25187JD  26075.70042824  .00000000  00000+0  00000-0 0  9995
2 10050  85.0000 144.0000 0000000   0.0000 324.0000 14.98995063    14
CTC2_L_00161013-04
1 10051U 24843TI  26075.70042824  .00000000  00000+0  00000-0 0  9994
2 10051  85.0000 144.0000 0000000   0.0000  54.0000 14.98995063    15
CTC2_L_00161014-01
1 10052U 23834DD  26075.70042824  .00000000  00000+0  00000-0 0  9994
2 10052  85.0000 156.0000 0000000   0.0000 156.0000 14.98995063    12
CTC2_L_00161014-02
1 10053U 22703FZ  26075.70042824  .00000000  00000+0  00000-0 0  9999
2 10053  85.0000 156.0000 0000000   0.0000 246.0000 14.98995063    13
CTC2_L_00161014-03
1 10054U 25352OO  26075.70042824  .00000000  00000+0  00000-0 0  9993
2 10054  85.0000 156.0000 0000000   0.0000 336.0000 14.98995063    14
CTC2_L_00161014-04
1 10055U 23981KJ  26075.70042824  .00000000  00000+0  00000-0 0  9990
2 10055  85.0000 156.0000 0000000   0.0000  66.0000 14.98995063    15
CTC2_L_00161015-01
1 10056U 23210IM  26075.70042824  .00000000  00000+0  00000-0 0  9996
2 10056  85.0000 168.0000 0000000   0.0000 168.0000 14.98995063    12
CTC2_L_00161015-02
1 10057U 23805MS  26075.70042824  .00000000  00000+0  00000-0 0  9997
2 10057  85.0000 168.0000 0000000   0.0000 258.0000 14.98995063    13
CTC2_L_00161015-03
1 10058U 24050DU  26075.70042824  .00000000  00000+0  00000-0 0  9991
2 10058  85.0000 168.0000 0000000   0.0000 348.0000 14.98995063    14
CTC2_L_00161015-04
1 10059U 26466QL  26075.70042824  .00000000  00000+0  00000-0 0  9995
2 10059  85.0000 168.0000 0000000   0.0000  78.0000 14.98995063    15
CTC2_L_00161016-01
1 10060U 24964OU  26075.70042824  .00000000  00000+0  00000-0 0  9998
2 10060  85.0000 180.0000 0000000   0.0000 180.0000 14.98995063    15
CTC2_L_00161016-02
1 10061U 26099WN  26075.70042824  .00000000  00000+0  00000-0 0  9990
2 10061  85.0000 180.0000 0000000   0.0000 270.0000 14.98995063    16
